0 SL-16 DEB
1 22376U 92093BR  13283.15355981  .00000731  00000-0  38209-3 0  6675
2 22376 070.8937 199.5570 0065777 234.0022 242.8640 14.16655124 67898
0 SL-16 DEB
1 22376U 92093BR  13286.81569154  .00001097  00000-0  56160-3 0  6694
2 22376 070.8934 191.8037 0065494 228.4355 199.6649 14.16658590 68417
0 SL-16 DEB
1 22376U 92093BR  13288.17389657  .00001546  00000-0  78177-3 0  6706
2 22376 070.8932 188.9280 0065384 226.3467 286.5233 14.16663257 68603
0 SL-16 DEB
1 22376U 92093BR  13290.15059727  .00001391  00000-0  70582-3 0  6710
2 22376 070.8930 184.7427 0065222 223.3817 287.6743 14.16668095 68888
0 SL-16 DEB
1 22376U 92093BR  13292.12830919  .00001417  00000-0  71864-3 0  6723
2 22376 070.8928 180.5552 0065079 220.4401 293.9931 14.16673087 69163
0 SL-16 DEB
1 22376U 92093BR  13293.80669965  .00001421  00000-0  72066-3 0  6731
2 22376 070.8928 177.0013 0064968 217.9656 213.7810 14.16678528 69403
0 SL-16 DEB
1 22376U 92093BR  13296.08464017  .00001314  00000-0  66808-3 0  6744
2 22376 070.8928 172.1778 0064792 214.6043 311.3220 14.16686181 69725
